EUTELSAT HOTBIRD 13F    
1 54048U 22134A   26188.00504632  .00000102  00000+0  00000+0 0  9999
2 54048   0.0529 287.3349 0001871  72.6848 299.7848  1.00271450 13570
LDPE-2                  
1 54219U 22144A   26188.47331729  .00000081  00000+0  00000+0 0  9992
2 54219   5.6588  63.4803 0002394 106.1666 148.1011  1.00541407 12048
EUTELSAT HOTBIRD 13G    
1 54225U 22146A   26188.00504632  .00000102  00000+0  00000+0 0  9999
2 54225   0.0501 218.9099 0002204 320.9510 119.9383  1.00271084  7668
ZHONGXING-19            
1 54230U 22148A   26188.48531574 -.00000066  00000+0  00000+0 0  9994
2 54230   0.0384 257.4392 0003000 236.0849 129.8413  1.00270789 13587
GALAXY 31 (G-31)        
1 54243U 22153A   26188.47756078  .00000028  00000+0  00000+0 0  9998
2 54243   0.0166 280.6740 0001301 186.2634 229.4308  1.00272441  7337
GALAXY 32 (G-32)        
1 54244U 22153B   26188.05572244 -.00000159  00000+0  00000+0 0  9990
2 54244   0.0098  22.5735 0001622  26.6946 164.8256  1.00270818 13346
EUTELSAT 10B            
1 54259U 22157A   26188.50338757  .00000083  00000+0  00000+0 0  9994
2 54259   0.0607  95.9726 0002099  21.3931 359.3254  1.00267315 13232
GALAXY 35 (G-35)        
1 54741U 22170A   26188.48302080 -.00000147  00000+0  00000+0 0  9994
2 54741   0.0234  90.2539 0002063  19.3880 256.5962  1.00271566 13096
GALAXY 36 (G-36)        
1 54742U 22170B   26188.45419703 -.00000170  00000+0  00000+0 0  9999
2 54742   0.0240 132.4848 0002649 325.6227 261.8253  1.00270935 12971
METEOSAT-12 (MTG-I1)    
1 54743U 22170C   26188.28753580  .00000007  00000+0  00000+0 0  9993
2 54743   0.7167  18.2557 0004002  82.3017 288.0179  1.00266625 13176
SHIJIAN-23 (SJ-23)      
1 55131U 23002A   26183.77701934 -.00000310  00000+0  00000+0 0  9993
2 55131   3.7551  78.1245 0003517 278.1911 341.9054  1.00083356 12667
APSTAR-6E               
1 55239U 23005A   26187.44097069 -.00000303  00000+0  00000+0 0  9992
2 55239   0.0433 220.2726 0001679 342.4252  14.4723  1.00273909 18889
USA 342                 
1 55263U 23008A   26182.16156895  .00000000  00000+0  00000+0 0  9992
2 55263   0.0057  55.5286 0000567 166.1191 139.6640  1.00270158 12656
LDPE-3A                 
1 55264U 23008B   26188.48322601 -.00000202  00000+0  00000+0 0  9999
2 55264   2.3974  81.4198 0001540  71.4274 115.4609  0.99151551 12011
ELEKTRO-L 4             
1 55506U 23016A   26187.74861252 -.00000043  00000+0  00000+0 0  9998
2 55506   0.0992 134.1594 0001157  45.0525 180.7899  1.00272041 12535
AMAZONAS NEXUS          
1 55508U 23017A   26188.06170248 -.00000267  00000+0  00000+0 0  9993
2 55508   0.0334  38.5553 0004676  43.0358 164.6663  1.00270134  7243
ZHONGXING-26            
1 55686U 23023A   26187.74236072 -.00000339  00000+0  00000+0 0  9999
2 55686   0.0598  70.4559 0003146  32.4351 214.1994  1.00269634 12426
LUCH-5X (OLYMP-K 2)     
1 55841U 23031A   26183.77616301  .00000044  00000+0  00000+0 0  9999
2 55841   0.0299  86.0246 0001113 152.0734  24.0844  1.00269692 12098
GAOFEN-13 02            
1 55912U 23036A   26188.17439238 -.00000206  00000+0  00000+0 0  9995
2 55912   1.0245   3.5052 0003474 330.6973 161.8188  1.00266123 12298
SES-18                  
1 55970U 23038A   26188.48111412 -.00000086  00000+0  00000+0 0  9992
2 55970   0.0554 265.0827 0000507 292.9379 157.5356  1.00271823 12307
SES-19                  
1 55971U 23038B   26188.46001353  .00000103  00000+0  00000+0 0  9992
2 55971   0.0355 287.1007 0001762 188.1577 200.8722  1.00271517 12299
INTELSAT 40E (IS-40E)   
1 56174U 23052A   26188.45351604  .00000000  00000+0  00000+0 0  9996
2 56174   0.0181  48.0310 0002287  95.1323 214.5212  1.00268915 12027
VIASAT-3 F1             
1 56370U 23060A   26187.98488980  .00000000  00000+0  00000+0 0  9998
2 56370   0.0177   9.6969 0001091 116.6231  64.2356  1.00264630 11637
ARCTURUS                
1 56371U 23060B   26188.44804345 -.00000272  00000+0  00000+0 0  9990
2 56371   2.8256  79.6893 0000609 142.0383 314.9453  1.00597538 11666
GS-1                    
1 56372U 23060C   26187.80633634 -.00000210  00000+0  00000+0 0  9993
2 56372   2.7750  79.6003 0003546 280.9306 303.9410  1.00269106  7739
BEIDOU-3 G4             
1 56564U 23066A   26187.31732966 -.00000268  00000+0  00000+0 0  9999
2 56564   0.4680 336.2679 0005056 178.9368  23.3032  1.00266978 11587
ARABSAT-7B (BADR-8)     
1 56757U 23075A   26188.00764632  .00000160  00000+0  00000+0 0  9995
2 56757   0.0735  29.9451 0003703   2.8048 280.9842  1.00273743 11318
NVS-01 (IRNSS-1J)       
1 56759U 23076A   26188.52715485 -.00000319  00000+0  00000+0 0  9994
2 56759   2.1209 243.4443 0003270   7.7256 353.6524  1.00268826 11329
NUSANTARA TIGA (SATRIA) 
1 57045U 23086A   26187.88879014 -.00000220  00000+0  00000+0 0  9992
2 57045   0.0348   4.7425 0002428 338.4095  47.6818  1.00269193  9956
H2SAT (HEINRICH HERTZ)  
1 57213U 23093A   26187.93127432  .00000017  00000+0  00000+0 0  9996
2 57213   0.0143 103.1163 0001097  34.0278 123.7384  1.00270676 11115
SYRACUSE 4B             
1 57214U 23093B   26188.00114631  .00000000  00000+0  00000+0 0  9995
2 57214   0.0209  36.3152 0000413 195.0276  47.5845  1.00269967  7167
JUPITER 3 (ECHOSTAR 24) 
1 57479U 23108A   26187.47440088  .00000000  00000+0  00000+0 0  9993
2 57479   0.0228  35.0419 0001268  66.6633 258.3090  1.00270196 10830
