OBJECT_NAME,OBJECT_ID,EPOCH,MEAN_MOTION,ECCENTRICITY,INCLINATION,RA_OF_ASC_NODE,ARG_OF_PERICENTER,MEAN_ANOMALY,EPHEMERIS_TYPE,CLASSIFICATION_TYPE,NORAD_CAT_ID,ELEMENT_SET_NO,REV_AT_EPOCH,BSTAR,MEAN_MOTION_DOT,MEAN_MOTION_DDOT
EUTELSAT HOTBIRD 13F,2022-134A,2026-07-07T00:07:16.002048,1.00271450,.0001871,0.0529,287.3349,72.6848,299.7848,0,U,54048,999,1357,0,.102E-5,0
LDPE-2,2022-144A,2026-07-07T11:21:34.613856,1.00541407,.0002394,5.6588,63.4803,106.1666,148.1011,0,U,54219,999,1204,0,.81E-6,0
EUTELSAT HOTBIRD 13G,2022-146A,2026-07-07T00:07:16.002048,1.00271084,.0002204,0.0501,218.9099,320.9510,119.9383,0,U,54225,999,766,0,.102E-5,0
ZHONGXING-19,2022-148A,2026-07-07T11:38:51.279936,1.00270789,.0003,0.0384,257.4392,236.0849,129.8413,0,U,54230,999,1358,0,-.66E-6,0
GALAXY 31 (G-31),2022-153A,2026-07-07T11:27:41.251392,1.00272441,.0001301,0.0166,280.6740,186.2634,229.4308,0,U,54243,999,733,0,.28E-6,0
GALAXY 32 (G-32),2022-153B,2026-07-07T01:20:14.418816,1.00270818,.0001622,0.0098,22.5735,26.6946,164.8256,0,U,54244,999,1334,0,-.159E-5,0
EUTELSAT 10B,2022-157A,2026-07-07T12:04:52.686048,1.00267315,.0002099,0.0607,95.9726,21.3931,359.3254,0,U,54259,999,1323,0,.83E-6,0
GALAXY 35 (G-35),2022-170A,2026-07-07T11:35:32.997120,1.00271566,.0002063,0.0234,90.2539,19.3880,256.5962,0,U,54741,999,1309,0,-.147E-5,0
GALAXY 36 (G-36),2022-170B,2026-07-07T10:54:02.623392,1.00270935,.0002649,0.0240,132.4848,325.6227,261.8253,0,U,54742,999,1297,0,-.17E-5,0
METEOSAT-12 (MTG-I1),2022-170C,2026-07-07T06:54:03.093120,1.00266625,.0004002,0.7167,18.2557,82.3017,288.0179,0,U,54743,999,1317,0,.7E-7,0
SHIJIAN-23 (SJ-23),2023-002A,2026-07-02T18:38:54.470976,1.00083356,.0003517,3.7551,78.1245,278.1911,341.9054,0,U,55131,999,1266,0,-.31E-5,0
APSTAR-6E,2023-005A,2026-07-06T10:34:59.867616,1.00273909,.00016797,0.0433,220.2726,342.4252,14.4723,0,U,55239,999,1888,0,-.303E-5,0
USA 342,2023-008A,2026-07-01T03:52:39.557280,1.00270158,.0000567,0.0057,55.5286,166.1191,139.6640,0,U,55263,999,1265,0,0,0
LDPE-3A,2023-008B,2026-07-07T11:35:50.727264,0.99151551,.000154,2.3974,81.4198,71.4274,115.4609,0,U,55264,999,1201,0,-.202E-5,0
ELEKTRO-L 4,2023-016A,2026-07-06T17:58:00.121728,1.00272041,.0001157,0.0992,134.1594,45.0525,180.7899,0,U,55506,999,1253,0,-.43E-6,0
AMAZONAS NEXUS,2023-017A,2026-07-07T01:28:51.094272,1.00270134,.0004676,0.0334,38.5553,43.0358,164.6663,0,U,55508,999,724,0,-.267E-5,0
ZHONGXING-26,2023-023A,2026-07-06T17:48:59.966208,1.00269634,.0003146,0.0598,70.4559,32.4351,214.1994,0,U,55686,999,1242,0,-.339E-5,0
LUCH-5X (OLYMP-K 2),2023-031A,2026-07-02T18:37:40.484064,1.00269692,.0001113,0.0299,86.0246,152.0734,24.0844,0,U,55841,999,1209,0,.44E-6,0
GAOFEN-13 02,2023-036A,2026-07-07T04:11:07.501632,1.00266123,.0003474,1.0245,3.5052,330.6973,161.8188,0,U,55912,999,1229,0,-.206E-5,0
SES-18,2023-038A,2026-07-07T11:32:48.259968,1.00271823,.0000507,0.0554,265.0827,292.9379,157.5356,0,U,55970,999,1230,0,-.86E-6,0
SES-19,2023-038B,2026-07-07T11:02:25.168992,1.00271517,.0001762,0.0355,287.1007,188.1577,200.8722,0,U,55971,999,1229,0,.103E-5,0
INTELSAT 40E (IS-40E),2023-052A,2026-07-07T10:53:03.785856,1.00268915,.0002287,0.0181,48.0310,95.1323,214.5212,0,U,56174,999,1202,0,0,0
VIASAT-3 F1,2023-060A,2026-07-06T23:38:14.478720,1.00264630,.0001091,0.0177,9.6969,116.6231,64.2356,0,U,56370,999,1163,0,0,0
ARCTURUS,2023-060B,2026-07-07T10:45:10.954080,1.00597538,.0000609,2.8256,79.6893,142.0383,314.9453,0,U,56371,999,1166,0,-.272E-5,0
GS-1,2023-060C,2026-07-06T19:21:07.459776,1.00269106,.0003546,2.7750,79.6003,280.9306,303.9410,0,U,56372,999,773,0,-.21E-5,0
BEIDOU-3 G4,2023-066A,2026-07-06T07:36:57.282624,1.00266978,.00050564,0.4680,336.2679,178.9368,23.3032,0,U,56564,999,1158,0,-.268E-5,0
ARABSAT-7B (BADR-8),2023-075A,2026-07-07T00:11:00.642048,1.00273743,.0003703,0.0735,29.9451,2.8048,280.9842,0,U,56757,999,1131,0,.16E-5,0
NVS-01 (IRNSS-1J),2023-076A,2026-07-07T12:39:06.179040,1.00268826,.000327,2.1209,243.4443,7.7256,353.6524,0,U,56759,999,1132,0,-.319E-5,0
NUSANTARA TIGA (SATRIA),2023-086A,2026-07-06T21:19:51.468096,1.00269193,.0002428,0.0348,4.7425,338.4095,47.6818,0,U,57045,999,995,0,-.22E-5,0
H2SAT (HEINRICH HERTZ),2023-093A,2026-07-06T22:21:02.101248,1.00270676,.0001097,0.0143,103.1163,34.0278,123.7384,0,U,57213,999,1111,0,.17E-6,0
SYRACUSE 4B,2023-093B,2026-07-07T00:01:39.041184,1.00269967,.0000413,0.0209,36.3152,195.0276,47.5845,0,U,57214,999,716,0,0,0
JUPITER 3 (ECHOSTAR 24),2023-108A,2026-07-06T11:23:08.236032,1.00270196,.0001268,0.0228,35.0419,66.6633,258.3090,0,U,57479,999,1083,0,0,0
